CCSDS_OMM_VERS = 2.0
CREATION_DATE  = 
ORIGINATOR     = 

OBJECT_NAME    = ELECTRON KICK STAGE R/B
OBJECT_ID      = 2025-307B
CENTER_NAME    = EARTH
REF_FRAME      = TEME
TIME_SYSTEM    = UTC
MEAN_ELEMENT_THEORY = SGP/SGP4

EPOCH          = 2025-12-21T08:41:51.108576
MEAN_MOTION    = 15.52867797
ECCENTRICITY   = .02558333
INCLINATION    = 41.9984
RA_OF_ASC_NODE = 123.0965
ARG_OF_PERICENTER = 237.1795
MEAN_ANOMALY   = 120.4177

EPHEMERIS_TYPE = 0
CLASSIFICATION_TYPE = U
NORAD_CAT_ID   = 67229
ELEMENT_SET_NO = 999
REV_AT_EPOCH   = 1
BSTAR          = .22820983E-3
MEAN_MOTION_DOT = .64668E-3
MEAN_MOTION_DDOT = .7864022E-5

CCSDS_OMM_VERS = 2.0
CREATION_DATE  = 
ORIGINATOR     = 

OBJECT_NAME    = ELECTRON R/B
OBJECT_ID      = 2025-307C
CENTER_NAME    = EARTH
REF_FRAME      = TEME
TIME_SYSTEM    = UTC
MEAN_ELEMENT_THEORY = SGP/SGP4

EPOCH          = 2025-12-21T08:41:59.140320
MEAN_MOTION    = 15.55087105
ECCENTRICITY   = .02614087
INCLINATION    = 41.9820
RA_OF_ASC_NODE = 123.1026
ARG_OF_PERICENTER = 268.1410
MEAN_ANOMALY   = 88.9482

EPHEMERIS_TYPE = 0
CLASSIFICATION_TYPE = U
NORAD_CAT_ID   = 67230
ELEMENT_SET_NO = 999
REV_AT_EPOCH   = 1
BSTAR          = .20247584E-3
MEAN_MOTION_DOT = .71881E-3
MEAN_MOTION_DDOT = .8106877E-5

