ELECTRON KICK STAGE R/B 
1 67229U 25307B   25355.36239709  .00064668  78640-5  22821-3 0  9990
2 67229  41.9984 123.0965 0255833 237.1795 120.4177 15.52867797    19
ELECTRON R/B            
1 67230U 25307C   25355.36249005  .00071881  81069-5  20248-3 0  9997
2 67230  41.9820 123.1026 0261408 268.1410  88.9482 15.55087105    19
